NORAD_CAT_ID,OBJECT_NAME,OBJECT_TYPE,EPOCH,MEAN_MOTION,ECCENTRICITY,INCLINATION,RA_OF_ASC_NODE,ARG_OF_PERICENTER,MEAN_ANOMALY,BSTAR,MEAN_MOTION_DOT,MEAN_MOTION_DDOT,TLE_LINE0,TLE_LINE1,TLE_LINE2,SEMIMAJOR_AXIS,PERIOD,APOGEE,PERIGEE,DECAYED
52697.0,STARLINK-4018,PAYLOAD,2024-05-10 02:08:33,15.08852027,0.0001285,53.2176,270.5845,79.2066,280.9071,0.00031887,4.792e-05,0.0,0 STARLINK-4018,1 52697U 22053AT  24131.08928033  .00004792  00000-0  31887-3 0  9997,2 52697  53.2176 270.5845 0001285  79.2066 280.9071 15.08852027109748,6917.844,95.437,540.598,538.82,0.0
52697.0,STARLINK-4018,PAYLOAD,2024-05-10 13:16:16,15.08835017,0.0001448,53.2175,268.5044,92.8231,267.2927,-8.1112e-07,-3.01e-06,0.0,0 STARLINK-4018,1 52697U 22053AT  24131.55296785 -.00000301  00000-0 -81112-6 0  9994,2 52697  53.2175 268.5044 0001448  92.8231 267.2927 15.08835017109817,6917.896,95.438,540.762,538.759,0.0
52697.0,STARLINK-4018,PAYLOAD,2024-05-10 14:51:39,15.08835775,0.0001457,53.2175,268.2069,91.9564,268.1595,7.2279e-05,8.62e-06,0.0,0 STARLINK-4018,1 52697U 22053AT  24131.61920760  .00000862  00000-0  72279-4 0  9990,2 52697  53.2175 268.2069 0001457  91.9564 268.1595 15.08835775110230,6917.893,95.438,540.766,538.75,0.0
52697.0,STARLINK-4018,PAYLOAD,2024-05-10 18:02:25,15.08845077,0.0001434,53.2183,267.6123,94.5293,265.5863,0.00052375,8.058e-05,0.0,0 STARLINK-4018,1 52697U 22053AT  24131.75168699  .00008058  00000-0  52375-3 0  9999,2 52697  53.2183 267.6123 0001434  94.5293 265.5863 15.08845077110253,6917.865,95.437,540.722,538.738,0.0
52697.0,STARLINK-4018,PAYLOAD,2024-05-11 13:06:59,15.08989169,8.52e-05,53.2162,264.0423,98.8781,261.2307,0.0048966,0.00078836,0.0,0 STARLINK-4018,1 52697U 22053AT  24132.54652090  .00078836  00000-0  48966-2 0  9991,2 52697  53.2162 264.0423 0000852  98.8781 261.2307 15.08989169109969,6917.424,95.428,539.879,538.7,0.0
52697.0,STARLINK-4018,PAYLOAD,2024-05-11 16:17:46,15.08740093,0.0001196,53.2171,263.4486,79.4003,280.7124,0.00575,0.00092169,0.0,0 STARLINK-4018,1 52697U 22053AT  24132.67901026  .00092169  00000-0  57500-2 0  9990,2 52697  53.2171 263.4486 0001196  79.4003 280.7124 15.08740093109981,6918.186,95.444,540.878,539.223,0.0
52697.0,STARLINK-4018,PAYLOAD,2024-05-12 01:50:07,15.08756281,0.000119,53.2169,261.6656,88.9734,271.1395,0.0015993,0.00025198,0.0,0 STARLINK-4018,1 52697U 22053AT  24133.07647479  .00025198  00000-0  15993-2 0  9992,2 52697  53.2169 261.6656 0001190  88.9734 271.1395 15.08756281110046,6918.136,95.443,540.825,539.178,0.0
52697.0,STARLINK-4018,PAYLOAD,2024-05-12 12:57:52,15.08736989,0.0001089,53.2169,259.5839,102.9453,257.1661,0.0010112,0.00015797,0.0,0 STARLINK-4018,1 52697U 22053AT  24133.54018908  .00015797  00000-0  10112-2 0  9995,2 52697  53.2169 259.5839 0001089 102.9453 257.1661 15.08736989110118,6918.195,95.444,540.814,539.307,0.0
52697.0,STARLINK-4018,PAYLOAD,2024-05-12 14:33:15,15.08731567,4.66e-05,53.2166,259.2858,137.7813,222.3215,0.0020283,0.00032044,0.0,0 STARLINK-4018,1 52697U 22053AT  24133.60643329  .00032044  00000-0  20283-2 0  9997,2 52697  53.2166 259.2858 0000466 137.7813 222.3215 15.08731567110539,6918.212,95.444,540.399,539.754,0.0
52697.0,STARLINK-4018,PAYLOAD,2024-05-12 16:08:38,15.08819996,0.0001255,53.2164,258.9882,89.9374,270.1762,0.0020741,0.00032857,0.0,0 STARLINK-4018,1 52697U 22053AT  24133.67267351  .00032857  00000-0  20741-2 0  9992,2 52697  53.2164 258.9882 0001255  89.9374 270.1762 15.08819996110134,6917.942,95.439,540.675,538.938,0.0
52697.0,STARLINK-4018,PAYLOAD,2024-05-13 08:02:30,15.08845168,0.0001273,53.2168,256.0157,82.3648,277.7488,0.0015032,0.0002372,0.0,0 STARLINK-4018,1 52697U 22053AT  24134.33507640  .00023720  00000-0  15032-2 0  9990,2 52697  53.2168 256.0157 0001273  82.3648 277.7488 15.08845168110232,6917.865,95.437,540.61,538.849,0.0
52697.0,STARLINK-4018,PAYLOAD,2024-05-13 14:24:02,15.08863659,0.0001276,53.2163,254.8265,82.5643,277.5494,0.0015566,0.00024588,0.0,0 STARLINK-4018,1 52697U 22053AT  24134.60003214  .00024588  00000-0  15566-2 0  9993,2 52697  53.2163 254.8265 0001276  82.5643 277.5494 15.08863659110682,6917.808,95.436,540.556,538.79,0.0
52697.0,STARLINK-4018,PAYLOAD,2024-05-13 17:34:48,15.08869847,0.0001307,53.2162,254.2314,83.4544,276.6597,0.0014761,0.00023301,0.0,0 STARLINK-4018,1 52697U 22053AT  24134.73250944  .00023301  00000-0  14761-2 0  9999,2 52697  53.2162 254.2314 0001307  83.4544 276.6597 15.08869847110707,6917.789,95.436,540.558,538.75,0.0
52697.0,STARLINK-4018,PAYLOAD,2024-05-14 11:04:02,15.08870803,0.0002011,53.2176,250.9592,92.7772,267.345,0.00095047,0.00014884,0.0,0 STARLINK-4018,1 52697U 22053AT  24135.46114061  .00014884  00000-0  95047-3 0  9992,2 52697  53.2176 250.9592 0002011  92.7772 267.3450 15.08870803110408,6917.786,95.436,541.042,538.26,0.0
52697.0,STARLINK-4018,PAYLOAD,2024-05-14 14:14:48,15.08867465,0.0001877,53.2168,250.365,87.3601,272.7605,0.00064533,0.00010005,0.0,0 STARLINK-4018,1 52697U 22053AT  24135.59361869  .00010005  00000-0  64533-3 0  9993,2 52697  53.2168 250.3650 0001877  87.3601 272.7605 15.08867465110837,6917.796,95.436,540.96,538.363,0.0
52697.0,STARLINK-4018,PAYLOAD,2024-05-15 12:30:12,15.08840597,0.0001475,53.2146,246.1981,86.2325,273.8835,-0.00025461,-4.338e-05,0.0,0 STARLINK-4018,1 52697U 22053AT  24136.52097582 -.00004338  00000-0 -25461-3 0  9996,2 52697  53.2146 246.1981 0001475  86.2325 273.8835 15.08840597110562,6917.879,95.438,540.764,538.723,0.0
52697.0,STARLINK-4018,PAYLOAD,2024-05-16 12:20:58,15.08856809,0.0001495,53.2154,241.7339,90.7587,269.3577,0.00044038,6.731e-05,0.0,0 STARLINK-4018,1 52697U 22053AT  24137.51457019  .00006731  00000-0  44038-3 0  9999,2 52697  53.2154 241.7339 0001495  90.7587 269.3577 15.08856809110714,6917.829,95.436,540.728,538.66,0.0
52697.0,STARLINK-4018,PAYLOAD,2024-05-16 13:56:22,15.08864328,0.0001194,53.2163,241.4435,78.607,281.5056,0.0011789,0.00018536,0.0,0 STARLINK-4018,1 52697U 22053AT  24137.58081949  .00018536  00000-0  11789-2 0  9993,2 52697  53.2163 241.4435 0001194  78.6070 281.5056 15.08864328111136,6917.806,95.436,540.497,538.845,0.0
52697.0,STARLINK-4018,PAYLOAD,2024-05-17 13:47:09,15.08823282,0.0001551,53.2178,236.9872,102.2353,257.8813,-0.00017527,-3.075e-05,0.0,0 STARLINK-4018,1 52697U 22053AT  24138.57442023 -.00003075  00000-0 -17527-3 0  9998,2 52697  53.2178 236.9872 0001551 102.2353 257.8813 15.08823282110872,6917.931,95.439,540.869,538.724,0.0
52697.0,STARLINK-4018,PAYLOAD,2024-05-17 23:19:28,15.08850481,0.000147,53.217,235.1946,64.9663,295.1481,0.0014286,0.00022528,0.0,0 STARLINK-4018,1 52697U 22053AT  24138.97185980  .00022528  00000-0  14286-2 0  9998,2 52697  53.2170 235.1946 0001470  64.9663 295.1481 15.08850481110939,6917.848,95.437,540.73,538.696,0.0
52697.0,STARLINK-4018,PAYLOAD,2024-05-18 12:02:33,15.08853937,0.0001956,53.2177,232.8192,77.8425,282.2786,0.00079238,0.0001235,0.0,0 STARLINK-4018,1 52697U 22053AT  24139.50177886  .00012350  00000-0  79238-3 0  9995,2 52697  53.2177 232.8192 0001956  77.8425 282.2786 15.08853937111015,6917.838,95.437,541.056,538.35,0.0
52697.0,STARLINK-4018,PAYLOAD,2024-05-18 13:37:56,15.08872291,0.000124,53.2158,232.5203,88.5983,271.5152,0.0014169,0.00022354,0.0,0 STARLINK-4018,1 52697U 22053AT  24139.56801205  .00022354  00000-0  14169-2 0  9996,2 52697  53.2158 232.5203 0001240  88.5983 271.5152 15.08872291111436,6917.782,95.436,540.504,538.789,0.0
52697.0,STARLINK-4018,PAYLOAD,2024-05-18 15:13:19,15.08875723,0.000129,53.2157,232.2231,90.882,269.232,0.0013592,0.00021431,0.0,0 STARLINK-4018,1 52697U 22053AT  24139.63425027  .00021431  00000-0  13592-2 0  9992,2 52697  53.2157 232.2231 0001290  90.8820 269.2320 15.08875723111034,6917.771,95.435,540.529,538.744,0.0
52697.0,STARLINK-4018,PAYLOAD,2024-05-18 23:10:14,15.08874801,0.0001676,53.2165,230.738,89.2538,270.8647,0.0010126,0.0001588,0.0,0 STARLINK-4018,1 52697U 22053AT  24139.96544420  .00015880  00000-0  10126-2 0  9998,2 52697  53.2165 230.7380 0001676  89.2538 270.8647 15.08874801111088,6917.774,95.435,540.798,538.48,0.0
52697.0,STARLINK-4018,PAYLOAD,2024-05-19 13:28:44,15.08822035,0.000134,53.2172,228.0577,84.3294,275.7851,-0.00046253,-7.638e-05,0.0,0 STARLINK-4018,1 52697U 22053AT  24140.56162080 -.00007638  00000-0 -46253-3 0  9999,2 52697  53.2172 228.0577 0001340  84.3294 275.7851 15.08822035111585,6917.935,95.439,540.727,538.873,0.0
52697.0,STARLINK-4018,PAYLOAD,2024-05-19 15:04:07,15.08823884,0.0001299,53.2171,227.7608,105.8152,254.2984,-0.0003699,-6.167e-05,0.0,0 STARLINK-4018,1 52697U 22053AT  24140.62786023 -.00006167  00000-0 -36990-3 0  9998,2 52697  53.2171 227.7608 0001299 105.8152 254.2984 15.08823884111188,6917.93,95.439,540.693,538.896,0.0
52697.0,STARLINK-4018,PAYLOAD,2024-05-20 11:44:08,15.08861454,0.0001332,53.2157,223.8988,98.0336,262.0807,0.0019184,0.00030393,0.0,0 STARLINK-4018,1 52697U 22053AT  24141.48898507  .00030393  00000-0  19184-2 0  9995,2 52697  53.2157 223.8988 0001332  98.0336 262.0807 15.08861454111316,6917.815,95.436,540.601,538.758,0.0
52697.0,STARLINK-4018,PAYLOAD,2024-05-20 13:19:31,15.08871528,0.0001296,53.2157,223.6019,96.4615,263.6525,0.0021336,0.00033861,0.0,0 STARLINK-4018,1 52697U 22053AT  24141.55522304  .00033861  00000-0  21336-2 0  9997,2 52697  53.2157 223.6019 0001296  96.4615 263.6525 15.08871528111733,6917.784,95.436,540.546,538.752,0.0
52697.0,STARLINK-4018,PAYLOAD,2024-05-21 05:13:22,15.08850771,0.000143,53.2158,220.6235,134.6684,225.4425,0.00072325,0.00011245,0.0,0 STARLINK-4018,1 52697U 22053AT  24142.21761868  .00011245  00000-0  72325-3 0  9998,2 52697  53.2158 220.6235 0001430 134.6684 225.4425 15.08850771111420,6917.847,95.437,540.702,538.723,0.0
52697.0,STARLINK-4018,PAYLOAD,2024-05-21 11:34:54,15.08849557,0.0001687,53.2162,219.4314,142.9448,217.166,0.00019926,2.885e-05,0.0,0 STARLINK-4018,1 52697U 22053AT  24142.48257753  .00002885  00000-0  19926-3 0  9998,2 52697  53.2162 219.4314 0001687 142.9448 217.1660 15.08849557111871,6917.851,95.437,540.883,538.549,0.0
